{
  "64460": {
    "noradId": "64460",
    "tle": [
      "1 64460C 25130Y   25355.11298611  .00001004  00000+0  33822-4 0  3552",
      "2 64460  53.1584  93.2291 0001225  89.5957  18.8181 15.30189222    18"
    ]
  },
  "64461": {
    "noradId": "64461",
    "tle": [
      "1 64461C 25130Z   25355.11298611  .00002401  00000+0  80916-4 0  3551",
      "2 64461  53.1598  93.7233 0001267  82.8387 135.4679 15.30186249    18"
    ]
  },
  "64462": {
    "noradId": "64462",
    "tle": [
      "1 64462C 25130AA  25355.10951389  .00002614  00000+0  88088-4 0  3553",
      "2 64462  53.1587  96.0838 0001244  86.0082 330.7027 15.30187775    19"
    ]
  },
  "64463": {
    "noradId": "64463",
    "tle": [
      "1 64463C 25130AB  25355.11090278  .00004055  00000+0  13667-3 0  3557",
      "2 64463  53.1591  96.0749 0001253  86.3987  12.8105 15.30185550    17"
    ]
  },
  "64464": {
    "noradId": "64464",
    "tle": [
      "1 64464C 25130AC  25355.11020833  .00001467  00000+0  49429-4 0  3558",
      "2 64464  53.1571  93.4564 0001219  86.9934 255.6002 15.30187559    16"
    ]
  },
  "64465": {
    "noradId": "64465",
    "tle": [
      "1 64465C 25130AD  25355.11506944  .00000546  00000+0  18408-4 0  3551",
      "2 64465  53.1593  93.6281 0001234  83.3764 187.1335 15.30187632    18"
    ]
  },
  "64472": {
    "noradId": "64472",
    "tle": [
      "1 64472C 25133A   25355.10951389 -.00000923  00000+0 -31109-4 0  3552",
      "2 64472  53.1584 122.0310 0001185  87.7213 293.5302 15.30194442    11"
    ]
  },
  "64473": {
    "noradId": "64473",
    "tle": [
      "1 64473C 25133B   25355.10812500  .00061248  00000+0  20663-2 0  3550",
      "2 64473  53.1584 122.0023 0001057 114.1252 276.9220 15.30099325    17"
    ]
  },
  "64474": {
    "noradId": "64474",
    "tle": [
      "1 64474C 25133C   25355.11159722  .00002219  00000+0  74782-4 0  3558",
      "2 64474  53.1588 121.9515 0001309  85.3302 342.2986 15.30192716    15"
    ]
  },
  "64475": {
    "noradId": "64475",
    "tle": [
      "1 64475C 25133D   25355.11229167  .00001056  00000+0  35590-4 0  3552",
      "2 64475  53.1591 121.8781 0001155  81.8257  24.5366 15.30191925    16"
    ]
  },
  "64476": {
    "noradId": "64476",
    "tle": [
      "1 64476C 25133E   25355.11090278  .00000657  00000+0  22154-4 0  3550",
      "2 64476  53.1591 121.8141 0001197  85.3447  48.2596 15.30193523    17"
    ]
  },
  "64477": {
    "noradId": "64477",
    "tle": [
      "1 64477C 25133F   25355.11229167 -.00001293  00000+0 -43561-4 0  3556",
      "2 64477  53.1588 121.7382 0001184  80.6778  95.4834 15.30192797    12"
    ]
  },
  "64478": {
    "noradId": "64478",
    "tle": [
      "1 64478C 25133G   25355.10951389 -.00003382  00000+0 -11399-3 0  3558",
      "2 64478  53.1581 121.6366 0001201  84.7640 134.2543 15.30192636    11"
    ]
  },
  "64479": {
    "noradId": "64479",
    "tle": [
      "1 64479C 25133H   25355.11159722 -.00006172  00000+0 -20802-3 0  3550",
      "2 64479  53.1584 121.6615 0001218  87.1210 125.9288 15.30197707    17"
    ]
  },
  "64480": {
    "noradId": "64480",
    "tle": [
      "1 64480C 25133J   25355.11020833 -.00045364  00000+0 -15295-2 0  3557",
      "2 64480  53.1583 121.6002 0001355  75.7582 164.5823 15.30224976    18"
    ]
  },
  "64481": {
    "noradId": "64481",
    "tle": [
      "1 64481C 25133K   25355.11298611 -.00009614  00000+0 -32402-3 0  3557",
      "2 64481  53.1580 121.5526 0001149  90.7045 182.3500 15.30201617    15"
    ]
  },
  "64482": {
    "noradId": "64482",
    "tle": [
      "1 64482C 25133L   25355.10881944 -.00004493  00000+0 -15146-3 0  3550",
      "2 64482  53.1570 121.4675 0001143  84.2540 218.1893 15.30192963    17"
    ]
  },
  "64483": {
    "noradId": "64483",
    "tle": [
      "1 64483C 25133M   25355.11368056 -.00005602  00000+0 -18881-3 0  3558",
      "2 64483  53.1572 121.3751 0001044  79.6741 284.4626 15.30194273    11"
    ]
  },
  "64484": {
    "noradId": "64484",
    "tle": [
      "1 64484C 25133N   25355.11298611 -.00006963  00000+0 -23466-3 0  3554",
      "2 64484  53.1576 122.0554 0001126  87.1353 289.9964 15.30198932    10"
    ]
  },
  "64485": {
    "noradId": "64485",
    "tle": [
      "1 64485C 25133P   25355.10743056 -.00005526  00000+0 -18625-3 0  3557",
      "2 64485  53.1581 122.0576 0001172  86.6267 271.5178 15.30197550    19"
    ]
  },
  "64486": {
    "noradId": "64486",
    "tle": [
      "1 64486C 25133Q   25355.11368056 -.00003944  00000+0 -13293-3 0  3550",
      "2 64486  53.1583 121.9939 0001195  86.7366 323.3014 15.30196767    13"
    ]
  },
  "64487": {
    "noradId": "64487",
    "tle": [
      "1 64487C 25133R   25355.11437500 -.00002454  00000+0 -82711-4 0  3559",
      "2 64487  53.1586 121.9558 0000992  74.4522 356.8643 15.30194573    18"
    ]
  },
  "64488": {
    "noradId": "64488",
    "tle": [
      "1 64488C 25133S   25355.10951389  .00000602  00000+0  20292-4 0  3552",
      "2 64488  53.1590 121.9435 0001109  56.8189   5.1572 15.30193415    11"
    ]
  },
  "64489": {
    "noradId": "64489",
    "tle": [
      "1 64489C 25133T   25355.11437500 -.00003452  00000+0 -11634-3 0  3555",
      "2 64489  53.1592 121.8850 0000676  58.3707  47.8421 15.30195587    13"
    ]
  },
  "64490": {
    "noradId": "64490",
    "tle": [
      "1 64490C 25133U   25355.11159722 -.00000239  00000+0 -80498-5 0  3550",
      "2 64490  53.1591 121.8628 0001220  82.7932  25.5637 15.30192399    14"
    ]
  },
  "64491": {
    "noradId": "64491",
    "tle": [
      "1 64491C 25133V   25355.11298611 -.00001674  00000+0 -56413-4 0  3555",
      "2 64491  53.1591 121.8208 0001227  87.4921  45.9718 15.30193600    18"
    ]
  },
  "64492": {
    "noradId": "64492",
    "tle": [
      "1 64492C 25133W   25355.11159722 -.00000830  00000+0 -27984-4 0  3559",
      "2 64492  53.1592 121.7922 0001205  84.1383  59.1195 15.30193369    12"
    ]
  },
  "64493": {
    "noradId": "64493",
    "tle": [
      "1 64493C 25133X   25355.11298611  .00000505  00000+0  17019-4 0  3556",
      "2 64493  53.1592 121.7504 0001223  74.7026  93.6611 15.30190471    15"
    ]
  },
  "64494": {
    "noradId": "64494",
    "tle": [
      "1 64494C 25133Y   25355.10881944 -.00002832  00000+0 -95435-4 0  3558",
      "2 64494  53.1589 121.7350 0001159  82.9287  79.9180 15.30193750    10"
    ]
  },
  "64495": {
    "noradId": "64495",
    "tle": [
      "1 64495C 25133Z   25355.11368056  .00000001  00000+0  30175-7 0  3551",
      "2 64495  53.1593 119.5438 0001209  83.9893 114.4039 15.30191456    17"
    ]
  },
  "64496": {
    "noradId": "64496",
    "tle": [
      "1 64496C 25133AA  25355.11368056 -.00003701  00000+0 -12475-3 0  3553",
      "2 64496  53.1588 121.6889 0001230  86.8189 114.4547 15.30193819    19"
    ]
  },
  "64497": {
    "noradId": "64497",
    "tle": [
      "1 64497C 25133AB  25355.11437500 -.00003682  00000+0 -12411-3 0  3553",
      "2 64497  53.1580 121.6268 0001199  83.4474 150.7404 15.30192378    11"
    ]
  },
  "64498": {
    "noradId": "64498",
    "tle": [
      "1 64498C 25133AC  25355.11506944  .00001922  00000+0  64796-4 0  3550",
      "2 64498  53.1578 121.5895 0001268  85.5327 169.9370 15.30186278    17"
    ]
  },
  "64594": {
    "noradId": "64594",
    "tle": [
      "1 64594C 25137A   25355.11020833 -.00014864  00000+0 -37092-3 0  3558",
      "2 64594  53.1599 341.7142 0001166  90.9419 254.7292 15.39630281    10"
    ]
  },
  "64595": {
    "noradId": "64595",
    "tle": [
      "1 64595C 25137B   25355.10881944 -.00016516  00000+0 -41212-3 0  3551",
      "2 64595  53.1596 341.3614 0001296  90.2786  67.9523 15.39632556    10"
    ]
  },
  "64596": {
    "noradId": "64596",
    "tle": [
      "1 64596C 25137C   25355.11368056 -.00015755  00000+0 -39308-3 0  3554",
      "2 64596  53.1601 341.5418 0001276  86.2870 355.8832 15.39634983    17"
    ]
  },
  "64597": {
    "noradId": "64597",
    "tle": [
      "1 64597C 25137D   25355.11437500 -.00015790  00000+0 -39396-3 0  3552",
      "2 64597  53.1592 341.1818 0001256  90.6060 175.6919 15.39634615    11"
    ]
  },
  "64598": {
    "noradId": "64598",
    "tle": [
      "1 64598C 25137E   25355.10951389 -.00017164  00000+0 -42822-3 0  3553",
      "2 64598  53.1590 341.1025 0001305  91.3841 199.4592 15.39637827    19"
    ]
  },
  "64599": {
    "noradId": "64599",
    "tle": [
      "1 64599C 25137F   25355.11159722 -.00015394  00000+0 -38410-3 0  3557",
      "2 64599  53.1598 341.4496 0001295  89.8013  32.3271 15.39633469    11"
    ]
  },
  "64600": {
    "noradId": "64600",
    "tle": [
      "1 64600C 25137G   25355.11368056 -.00017639  00000+0 -44011-3 0  3550",
      "2 64600  53.1602 341.6446 0001254  88.9073 301.7636 15.39635700    16"
    ]
  },
  "64601": {
    "noradId": "64601",
    "tle": [
      "1 64601C 25137H   25355.11229167 -.00016122  00000+0 -40227-3 0  3551",
      "2 64601  53.1600 341.4971 0001256  91.3467   8.8810 15.39634199    13"
    ]
  },
  "64602": {
    "noradId": "64602",
    "tle": [
      "1 64602C 25137J   25355.11090278 -.00015615  00000+0 -38963-3 0  3551",
      "2 64602  53.1593 341.2993 0001266  89.3068 106.2307 15.39632642    17"
    ]
  },
  "64603": {
    "noradId": "64603",
    "tle": [
      "1 64603C 25137K   25355.11020833 -.00013149  00000+0 -32807-3 0  3553",
      "2 64603  53.1592 341.2501 0001252  90.9272 126.5078 15.39632317    11"
    ]
  },
  "64604": {
    "noradId": "64604",
    "tle": [
      "1 64604C 25137L   25355.11159722 -.00016230  00000+0 -40496-3 0  3551",
      "2 64604  53.1602 341.6014 0001258  94.0738 310.7961 15.39634348    19"
    ]
  },
  "64605": {
    "noradId": "64605",
    "tle": [
      "1 64605C 25137M   25355.10881944 -.00017632  00000+0 -43996-3 0  3554",
      "2 64605  53.1598 341.4104 0001376  90.0993  42.3701 15.39634769    19"
    ]
  }
}